{
  "norad_id": 68149,
  "name": "STARLINK-36992",
  "history": [
    {
      "epoch": "2026-03-28T21:42:07.217280",
      "apogee_km": 328.8644227679424,
      "perigee_km": 327.19338034859265,
      "latitude_deg": -23.698291181354662,
      "longitude_deg": 1.7080191997811198,
      "semi_major_axis_km": 6706.165901558267,
      "eccentricity": 0.00012459,
      "inclination_deg": 97.2846,
      "raan_deg": 108.1067,
      "arg_perigee_deg": 109.0952,
      "mean_anomaly_deg": 251.0452,
      "mean_motion_rev_day": 15.80852398
    },
    {
      "epoch": "2026-03-29T02:15:35.138016",
      "apogee_km": 328.8048833814828,
      "perigee_km": 327.0975133261818,
      "latitude_deg": 15.17227700979068,
      "longitude_deg": 19.93904223991558,
      "semi_major_axis_km": 6706.088198353832,
      "eccentricity": 0.0001273,
      "inclination_deg": 97.2845,
      "raan_deg": 108.3073,
      "arg_perigee_deg": 101.0714,
      "mean_anomaly_deg": 259.0697,
      "mean_motion_rev_day": 15.80879874
    }
  ]
}